*******************************************************************************
Ephemeris / WWW_USER Fri Mar  7 10:40:58 2025 Pasadena, USA      / Horizons    
*******************************************************************************
Target body name: (2018 TC)                       {source: JPL#10}
Center body name: Earth (399)                     {source: DE441}
Center-site name: Mauna Kea
*******************************************************************************
Start time      : A.D. 2018-Aug-22 04:55:00.0000 UT      
Stop  time      : A.D. 2018-Aug-22 15:54:00.0000 UT      
Step-size       : 1 minutes
*******************************************************************************
Target pole/equ : undefined
Target radii    : undefined                                                    
Center geodetic : 204.5278, 19.8260847, 4.21024   {E-lon(deg),Lat(deg),Alt(km)}
Center cylindric: 204.5278, 6006.35451, 2151.0229 {E-lon(deg),Dxy(km),Dz(km)}
Center pole/equ : ITRF93                          {East-longitude positive}
Center radii    : 6378.137, 6378.137, 6356.752 km {Equator_a, b, pole_c}       
Target primary  : Sun
Vis. interferer : MOON (R_eq= 1737.400) km        {source: DE441}
Rel. light bend : Sun                             {source: DE441}
Rel. lght bnd GM: 1.3271E+11 km^3/s^2                                          
Small-body perts: Yes                             {source: SB441-N16}
Atmos refraction: NO (AIRLESS)
RA format       : HMS
Time format     : CAL 
Calendar mode   : Mixed Julian/Gregorian
RTS-only print  : NO       
EOP file        : eop.250306.p250602                                           
EOP coverage    : DATA-BASED 1962-JAN-20 TO 2025-MAR-06. PREDICTS-> 2025-JUN-01
Units conversion: 1 au= 149597870.700 km, c= 299792.458 km/s, 1 day= 86400.0 s 
Table cut-offs 1: Elevation (-90.0deg=NO ),Airmass (>38.000=NO), Daylight (YES)
Table cut-offs 2: Solar elongation (  0.0,180.0=NO ),Local Hour Angle( 0.0=NO )
Table cut-offs 3: RA/DEC angular rate (     0.0=NO )                           
*******************************************************************************
Initial IAU76/J2000 heliocentric ecliptic osculating elements (au, days, deg.):
  EPOCH=  2458399.5 ! 2018-Oct-08.00 (TDB)         Residual RMS= .20211        
   EC= .2253304451868516   QR= .9525668516843322   TP= 2458354.2554697809      
   OM= 188.9146441926015   W=  135.2493409557404   IN= 3.631837316097226       
  Equivalent ICRF heliocentric cartesian coordinates (au, au/d):
   X= 9.874490534016482E-01  Y= 2.414303737329446E-01  Z= 9.746991415829437E-02
  VX=-1.955204385424240E-03 VY= 1.722364762632024E-02 VZ= 6.197883797821973E-03
Asteroid physical parameters (km, seconds, rotational period in hours):        
   GM= n.a.                RAD= n.a.               ROTPER= n.a.                
   H= 26.6                 G= .150                 B-V= n.a.                   
                           ALBEDO= n.a.            STYP= n.a.                  
*******************************************************************************
 Date__(UT)__HR:MN     R.A._________(ICRF)_________DEC
******************************************************
$$SOE
 2018-Aug-22 09:01  m  13 55 23.704702 +04 39 44.20363
 2018-Aug-22 09:02  m  13 55 23.765050 +04 39 44.13495
 2018-Aug-22 09:03  m  13 55 23.825476 +04 39 44.06630
 2018-Aug-22 09:04  m  13 55 23.885978 +04 39 43.99767
 2018-Aug-22 09:05  m  13 55 23.946558 +04 39 43.92907
 2018-Aug-22 09:06  m  13 55 24.007214 +04 39 43.86049
 2018-Aug-22 09:07  m  13 55 24.067947 +04 39 43.79194
 2018-Aug-22 09:08  m  13 55 24.128756 +04 39 43.72341
 2018-Aug-22 09:09  m  13 55 24.189643 +04 39 43.65490
 2018-Aug-22 09:10  m  13 55 24.250606 +04 39 43.58643
 2018-Aug-22 09:11  m  13 55 24.311645 +04 39 43.51798
 2018-Aug-22 09:12  m  13 55 24.372761 +04 39 43.44956
 2018-Aug-22 09:13  m  13 55 24.433953 +04 39 43.38116
 2018-Aug-22 09:14  m  13 55 24.495221 +04 39 43.31279
 2018-Aug-22 09:15  m  13 55 24.556565 +04 39 43.24446
 2018-Aug-22 09:16  m  13 55 24.617986 +04 39 43.17614
 2018-Aug-22 09:17  m  13 55 24.679482 +04 39 43.10786
 2018-Aug-22 09:18  m  13 55 24.741054 +04 39 43.03961
 2018-Aug-22 09:19  m  13 55 24.802703 +04 39 42.97139
 2018-Aug-22 09:20  m  13 55 24.864426 +04 39 42.90320
 2018-Aug-22 09:21  m  13 55 24.926226 +04 39 42.83504
 2018-Aug-22 09:22  m  13 55 24.988101 +04 39 42.76691
 2018-Aug-22 09:23  m  13 55 25.050051 +04 39 42.69881
 2018-Aug-22 09:24  m  13 55 25.112077 +04 39 42.63074
 2018-Aug-22 09:25  m  13 55 25.174178 +04 39 42.56271
 2018-Aug-22 09:26  m  13 55 25.236354 +04 39 42.49471
 2018-Aug-22 09:27  m  13 55 25.298605 +04 39 42.42674
 2018-Aug-22 09:28  m  13 55 25.360932 +04 39 42.35880
 2018-Aug-22 09:29  m  13 55 25.423333 +04 39 42.29090
 2018-Aug-22 09:30  m  13 55 25.485808 +04 39 42.22304
 2018-Aug-22 09:31  m  13 55 25.548359 +04 39 42.15520
 2018-Aug-22 09:32  m  13 55 25.610984 +04 39 42.08741
 2018-Aug-22 09:33  m  13 55 25.673683 +04 39 42.01965
 2018-Aug-22 09:34  m  13 55 25.736456 +04 39 41.95192
 2018-Aug-22 09:35  m  13 55 25.799304 +04 39 41.88423
 2018-Aug-22 09:36  m  13 55 25.862226 +04 39 41.81658
 2018-Aug-22 09:37  m  13 55 25.925222 +04 39 41.74896
 2018-Aug-22 09:38  m  13 55 25.988292 +04 39 41.68138
 2018-Aug-22 09:39  m  13 55 26.051435 +04 39 41.61384
 2018-Aug-22 09:40  m  13 55 26.114652 +04 39 41.54634
 2018-Aug-22 09:41  m  13 55 26.177943 +04 39 41.47888
 2018-Aug-22 09:42  m  13 55 26.241306 +04 39 41.41145
 2018-Aug-22 09:43  m  13 55 26.304744 +04 39 41.34406
 2018-Aug-22 09:44  m  13 55 26.368254 +04 39 41.27672
 2018-Aug-22 09:45  m  13 55 26.431837 +04 39 41.20941
 2018-Aug-22 09:46  m  13 55 26.495493 +04 39 41.14215
 2018-Aug-22 09:47  m  13 55 26.559222 +04 39 41.07492
 2018-Aug-22 09:48  m  13 55 26.623024 +04 39 41.00774
 2018-Aug-22 09:49  m  13 55 26.686898 +04 39 40.94060
 2018-Aug-22 09:50  m  13 55 26.750844 +04 39 40.87350
 2018-Aug-22 09:51  m  13 55 26.814862 +04 39 40.80644
 2018-Aug-22 09:52  m  13 55 26.878953 +04 39 40.73943
 2018-Aug-22 09:53  m  13 55 26.943115 +04 39 40.67245
 2018-Aug-22 09:54  m  13 55 27.007350 +04 39 40.60553
 2018-Aug-22 09:55  m  13 55 27.071656 +04 39 40.53864
 2018-Aug-22 09:56  m  13 55 27.136033 +04 39 40.47180
 2018-Aug-22 09:57  m  13 55 27.200482 +04 39 40.40501
 2018-Aug-22 09:58  m  13 55 27.265002 +04 39 40.33826
 2018-Aug-22 09:59  m  13 55 27.329594 +04 39 40.27156
 2018-Aug-22 10:00  m  13 55 27.394256 +04 39 40.20490
 2018-Aug-22 10:01  m  13 55 27.458989 +04 39 40.13828
 2018-Aug-22 10:02  m  13 55 27.523792 +04 39 40.07172
 2018-Aug-22 10:03  m  13 55 27.588666 +04 39 40.00520
 2018-Aug-22 10:04  m  13 55 27.653611 +04 39 39.93873
 2018-Aug-22 10:05  m  13 55 27.718626 +04 39 39.87230
 2018-Aug-22 10:06  m  13 55 27.783710 +04 39 39.80593
 2018-Aug-22 10:07  m  13 55 27.848865 +04 39 39.73960
 2018-Aug-22 10:08  m  13 55 27.914089 +04 39 39.67332
 2018-Aug-22 10:09  m  13 55 27.979383 +04 39 39.60709
 2018-Aug-22 10:10  m  13 55 28.044746 +04 39 39.54091
 2018-Aug-22 10:11  m  13 55 28.110179 +04 39 39.47478
 2018-Aug-22 10:12  m  13 55 28.175680 +04 39 39.40870
 2018-Aug-22 10:13  m  13 55 28.241250 +04 39 39.34268
 2018-Aug-22 10:14  m  13 55 28.306890 +04 39 39.27670
 2018-Aug-22 10:15  m  13 55 28.372597 +04 39 39.21077
 2018-Aug-22 10:16  m  13 55 28.438374 +04 39 39.14490
 2018-Aug-22 10:17  m  13 55 28.504218 +04 39 39.07907
 2018-Aug-22 10:18  m  13 55 28.570131 +04 39 39.01330
 2018-Aug-22 10:19  m  13 55 28.636111 +04 39 38.94759
 2018-Aug-22 10:20  m  13 55 28.702159 +04 39 38.88192
 2018-Aug-22 10:21  m  13 55 28.768275 +04 39 38.81631
 2018-Aug-22 10:22  m  13 55 28.834458 +04 39 38.75075
 2018-Aug-22 10:23  m  13 55 28.900708 +04 39 38.68525
 2018-Aug-22 10:24  m  13 55 28.967025 +04 39 38.61980
 2018-Aug-22 10:25  m  13 55 29.033409 +04 39 38.55441
 2018-Aug-22 10:26  m  13 55 29.099860 +04 39 38.48907
 2018-Aug-22 10:27  m  13 55 29.166377 +04 39 38.42379
 2018-Aug-22 10:28  m  13 55 29.232961 +04 39 38.35856
 2018-Aug-22 10:29  m  13 55 29.299610 +04 39 38.29339
 2018-Aug-22 10:30  m  13 55 29.366326 +04 39 38.22828
 2018-Aug-22 10:31  m  13 55 29.433107 +04 39 38.16322
 2018-Aug-22 10:32  m  13 55 29.499954 +04 39 38.09822
 2018-Aug-22 10:33  m  13 55 29.566866 +04 39 38.03328
 2018-Aug-22 10:34  m  13 55 29.633843 +04 39 37.96840
 2018-Aug-22 10:35  m  13 55 29.700886 +04 39 37.90358
 2018-Aug-22 10:36  m  13 55 29.767993 +04 39 37.83881
 2018-Aug-22 10:37  m  13 55 29.835164 +04 39 37.77410
 2018-Aug-22 10:38  m  13 55 29.902400 +04 39 37.70946
 2018-Aug-22 10:39  m  13 55 29.969701 +04 39 37.64487
 2018-Aug-22 10:40  m  13 55 30.037065 +04 39 37.58034
 2018-Aug-22 10:41  m  13 55 30.104493 +04 39 37.51588
 2018-Aug-22 10:42  m  13 55 30.171984 +04 39 37.45147
 2018-Aug-22 10:43  m  13 55 30.239539 +04 39 37.38713
 2018-Aug-22 10:44  m  13 55 30.307157 +04 39 37.32284
 2018-Aug-22 10:45  m  13 55 30.374838 +04 39 37.25862
 2018-Aug-22 10:46  m  13 55 30.442582 +04 39 37.19446
 2018-Aug-22 10:47  m  13 55 30.510388 +04 39 37.13037
 2018-Aug-22 10:48  m  13 55 30.578257 +04 39 37.06633
 2018-Aug-22 10:49  m  13 55 30.646188 +04 39 37.00236
 2018-Aug-22 10:50  m  13 55 30.714181 +04 39 36.93845
 2018-Aug-22 10:51  m  13 55 30.782235 +04 39 36.87461
 2018-Aug-22 10:52  m  13 55 30.850351 +04 39 36.81083
 2018-Aug-22 10:53  m  13 55 30.918528 +04 39 36.74712
 2018-Aug-22 10:54  m  13 55 30.986767 +04 39 36.68347
 2018-Aug-22 10:55  m  13 55 31.055066 +04 39 36.61988
 2018-Aug-22 10:56  m  13 55 31.123426 +04 39 36.55636
 2018-Aug-22 10:57  m  13 55 31.191846 +04 39 36.49291
 2018-Aug-22 10:58  m  13 55 31.260326 +04 39 36.42952
 2018-Aug-22 10:59  m  13 55 31.328866 +04 39 36.36620
 2018-Aug-22 11:00  m  13 55 31.397467 +04 39 36.30295
 2018-Aug-22 11:01  m  13 55 31.466126 +04 39 36.23976
 2018-Aug-22 11:02  m  13 55 31.534845 +04 39 36.17664
 2018-Aug-22 11:03  m  13 55 31.603623 +04 39 36.11359
